<root><node lat="17.9876072" lon="-76.7365191" t="enhancedOSM" version="1"><tag k="addr:housenumber" v="2A" /><tag k="addr:street" v="August Town Road" /></node><node lat="17.9884985" lon="-76.7358595" t="enhancedOSM" version="1"><tag k="addr:housenumber" v="26" /><tag k="addr:street" v="Bedward Crescent" /></node><node lat="17.9880359" lon="-76.7359986" t="enhancedOSM" version="1"><tag k="addr:housenumber" v="26" /><tag k="addr:street" v="Bedward Crescent" /></node><node lat="17.9881237" lon="-76.7359922" t="enhancedOSM" version="1"><tag k="addr:housenumber" v="24" /><tag k="addr:street" v="Bedward Crescent" /></node><node lat="17.988217" lon="-76.7360457" t="enhancedOSM" version="1"><tag k="addr:housenumber" v="32" /><tag k="addr:street" v="Bedward Crescent" /></node><node lat="17.9885387" lon="-76.7360986" t="enhancedOSM" version="1"><tag k="addr:housenumber" v="71" /><tag k="addr:street" v="Bedward Crescent" /></node><node lat="17.9887338" lon="-76.7360524" t="enhancedOSM" version="1"><tag k="addr:housenumber" v="76" /><tag k="addr:street" v="Bedward Crescent" /></node><node lat="17.9889869" lon="-76.735996" t="enhancedOSM" version="1"><tag k="addr:housenumber" v="72" /><tag k="addr:street" v="Bedward Crescent" /></node><node lat="17.9890373" lon="-76.7359127" t="enhancedOSM" version="1"><tag k="addr:housenumber" v="70" /><tag k="addr:street" v="Bedward Crescent" /></node><node lat="17.9897394" lon="-76.7361446" t="enhancedOSM" version="1"><tag k="addr:housenumber" v="9" /><tag k="addr:street" v="July Road" /><tag k="addr:city" v="Kingston, Jamaica" /></node><node lat="17.989197" lon="-76.7352313" t="enhancedOSM" version="1"><tag k="addr:housenumber" v="29-31" /><tag k="addr:street" v="Bedward Crescent" /><tag k="addr:city" v="Kingston, Jamaica" /></node><node lat="17.9881366" lon="-76.7358096" t="enhancedOSM" version="1"><tag k="addr:housenumber" v="3" /><tag k="addr:street" v="Bedward Crescent" /></node><node lat="17.9880754" lon="-76.7356646" t="enhancedOSM" version="1"><tag k="addr:housenumber" v="5" /><tag k="addr:street" v="Bedward Crescent" /></node><node lat="17.9880663" lon="-76.7355522" t="enhancedOSM" version="1"><tag k="addr:housenumber" v="7" /><tag k="addr:street" v="Bedward Crescent" /></node><node lat="17.9898166" lon="-76.7362551" t="enhancedOSM" version="1"><tag k="addr:housenumber" v="9" /><tag k="addr:street" v="July Road" /><tag k="addr:city" v="Kingston, Jamaica" /></node><node lat="17.9922292" lon="-76.73748" t="enhancedOSM" version="1"><tag k="addr:housenumber" v="1" /><tag k="addr:street" v="Barrett Drive" /><tag k="addr:city" v="August Town" /></node><node lat="17.9921251" lon="-76.7371536" t="enhancedOSM" version="1"><tag k="addr:housenumber" v="2" /><tag k="addr:street" v="Barrett Drive" /><tag k="addr:city" v="August Town" /></node><node lat="17.9921266" lon="-76.7370471" t="enhancedOSM" version="1"><tag k="addr:housenumber" v="4" /><tag k="addr:street" v="Barrett Drive" /><tag k="addr:city" v="August Town" /></node><node lat="17.9923222" lon="-76.7372037" t="enhancedOSM" version="1"><tag k="addr:housenumber" v="5" /><tag k="addr:street" v="Barrett Drive" /><tag k="addr:city" v="August Town" /></node><node lat="17.9923707" lon="-76.737091" t="enhancedOSM" version="1"><tag k="addr:housenumber" v="6" /><tag k="addr:street" v="Barrett Drive" /><tag k="addr:city" v="August Town" /></node><node lat="17.9924332" lon="-76.7369059" t="enhancedOSM" version="1"><tag k="addr:housenumber" v="7" /><tag k="addr:street" v="Barrett Drive" /><tag k="addr:city" v="August Town" /></node><node lat="17.9926245" lon="-76.7369609" t="enhancedOSM" version="1"><tag k="addr:housenumber" v="7" /><tag k="addr:street" v="Barrett Drive" /><tag k="addr:city" v="August Town" /></node><node lat="17.9923707" lon="-76.736686" t="enhancedOSM" version="1"><tag k="addr:housenumber" v="9" /><tag k="addr:street" v="Barrett Drive" /><tag k="addr:city" v="August Town" /></node><node lat="17.9928933" lon="-76.7382438" t="enhancedOSM" version="1"><tag k="addr:housenumber" v="1" /><tag k="addr:street" v="Barrett Drive" /><tag k="addr:city" v="August Town" /></node><node lat="17.9963763" lon="-76.7443406" t="enhancedOSM" version="1"><tag k="addr:housenumber" v="1" /><tag k="addr:street" v="Princess Alice Way" /><tag k="addr:city" v="Kingston" /></node><node lat="17.99351" lon="-76.7434836" t="enhancedOSM" version="1"><tag k="addr:housenumber" v="10" /><tag k="addr:street" v="Bailey Road" /></node><node lat="17.9934326" lon="-76.7435574" t="enhancedOSM" version="1"><tag k="addr:housenumber" v="12" /><tag k="addr:street" v="Bailey Road" /></node><node lat="17.9873983" lon="-76.7371436" t="enhancedOSM" version="1"><tag k="addr:housenumber" v="13 A" /><tag k="addr:street" v="August Town Road" /></node><node lat="17.9873797" lon="-76.7372912" t="enhancedOSM" version="1"><tag k="addr:housenumber" v="13 B" /><tag k="addr:street" v="August Town Road" /></node><node lat="17.9875144" lon="-76.7369719" t="enhancedOSM" version="1"><tag k="addr:housenumber" v="13" /><tag k="addr:street" v="August Town Road" /></node><node lat="17.9897082" lon="-76.7364568" t="enhancedOSM" version="1"><tag k="addr:housenumber" v="13" /><tag k="addr:street" v="August Town Road" /><tag k="addr:city" v="Kingston, Jamaica" /></node><node lat="17.9933782" lon="-76.7436448" t="enhancedOSM" version="1"><tag k="addr:housenumber" v="14" /><tag k="addr:street" v="Bailey Road" /></node><node lat="17.9933438" lon="-76.7437396" t="enhancedOSM" version="1"><tag k="addr:housenumber" v="16" /><tag k="addr:street" v="Bailey Road" /></node><node lat="17.9914215" lon="-76.7426568" t="enhancedOSM" version="1"><tag k="addr:housenumber" v="16" /><tag k="addr:street" v="Beaumont Road" /><tag k="addr:city" v="Kingston" /></node><node lat="17.9933094" lon="-76.7438496" t="enhancedOSM" version="1"><tag k="addr:housenumber" v="18" /><tag k="addr:street" v="Bailey Road" /></node><node lat="17.9914215" lon="-76.7428375" t="enhancedOSM" version="1"><tag k="addr:housenumber" v="18" /><tag k="addr:street" v="Beaumont Road" /></node><node lat="17.994146" lon="-76.7432517" t="enhancedOSM" version="1"><tag k="addr:housenumber" v="18" /><tag k="addr:street" v="Beaumont Road" /><tag k="addr:city" v="Kingston" /></node><node lat="17.9938466" lon="-76.7431282" t="enhancedOSM" version="1"><tag k="addr:housenumber" v="2" /><tag k="addr:street" v="Bailey Road" /></node><node lat="17.9932593" lon="-76.743943" t="enhancedOSM" version="1"><tag k="addr:housenumber" v="20" /><tag k="addr:street" v="Bailey Road" /></node><node lat="17.9915146" lon="-76.7430333" t="enhancedOSM" version="1"><tag k="addr:housenumber" v="20" /><tag k="addr:street" v="Beaumont Road" /></node><node lat="17.992624" lon="-76.7425189" t="enhancedOSM" version="1"><tag k="addr:housenumber" v="21" /><tag k="addr:street" v="Escarpment Road" /><tag k="addr:city" v="Kingston" /></node><node lat="17.9932106" lon="-76.7440665" t="enhancedOSM" version="1"><tag k="addr:housenumber" v="22" /><tag k="addr:street" v="Bailey Road" /></node><node lat="17.9916077" lon="-76.7431357" t="enhancedOSM" version="1"><tag k="addr:housenumber" v="22" /><tag k="addr:street" v="Beaumont Road" /></node><node lat="17.9951215" lon="-76.7458075" t="enhancedOSM" version="1"><tag k="addr:housenumber" v="22" /><tag k="addr:street" v="Princess Alice Way" /></node><node lat="17.9931433" lon="-76.7441764" t="enhancedOSM" version="1"><tag k="addr:housenumber" v="24" /><tag k="addr:street" v="Bailey Road" /></node><node lat="17.9916664" lon="-76.743217" t="enhancedOSM" version="1"><tag k="addr:housenumber" v="24" /><tag k="addr:street" v="Beaumont Road" /></node><node lat="17.9917452" lon="-76.7433104" t="enhancedOSM" version="1"><tag k="addr:housenumber" v="26" /><tag k="addr:street" v="Beaumont Road" /></node><node lat="17.9918354" lon="-76.7433616" t="enhancedOSM" version="1"><tag k="addr:housenumber" v="28" /><tag k="addr:street" v="Beaumont Road" /></node><node lat="17.987856" lon="-76.7346442" t="enhancedOSM" version="1"><tag k="addr:housenumber" v="28" /><tag k="addr:street" v="Bedward Crescent" /></node><node lat="17.9961944" lon="-76.7445078" t="enhancedOSM" version="1"><tag k="addr:housenumber" v="3" /><tag k="addr:street" v="Princess Alice Way" /></node><node lat="17.9919128" lon="-76.7434249" t="enhancedOSM" version="1"><tag k="addr:housenumber" v="30" /><tag k="addr:street" v="Beaumont Road" /></node><node lat="17.9918197" lon="-76.7436086" t="enhancedOSM" version="1"><tag k="addr:housenumber" v="31" /><tag k="addr:street" v="Beaumont Road" /></node><node lat="17.9930709" lon="-76.7426387" t="enhancedOSM" version="1"><tag k="addr:housenumber" v="31" /><tag k="addr:street" v="Escarpment Road" /></node><node lat="17.9920073" lon="-76.7434791" t="enhancedOSM" version="1"><tag k="addr:housenumber" v="32" /><tag k="addr:street" v="Beaumont Road" /></node><node lat="17.9906422" lon="-76.7374501" t="enhancedOSM" version="1"><tag k="addr:housenumber" v="32" /><tag k="addr:street" v="July Road" /><tag k="addr:city" v="August Town" /></node><node lat="17.988174" lon="-76.7344514" t="enhancedOSM" version="1"><tag k="addr:housenumber" v="34" /><tag k="addr:street" v="Bedward Crescent" /></node><node lat="17.9937578" lon="-76.743205" t="enhancedOSM" version="1"><tag k="addr:housenumber" v="4" /><tag k="addr:street" v="Bailey Road" /></node><node lat="17.9888373" lon="-76.7345207" t="enhancedOSM" version="1"><tag k="addr:housenumber" v="44" /><tag k="addr:street" v="Bedward Crescent" /></node><node lat="17.9927494" lon="-76.743955" t="enhancedOSM" version="1"><tag k="addr:housenumber" v="46" /><tag k="addr:street" v="Beaumont Road" /><tag k="addr:city" v="Kingston" /></node><node lat="17.9894862" lon="-76.7359402" t="enhancedOSM" version="1"><tag k="addr:housenumber" v="5" /><tag k="addr:street" v="July Road" /><tag k="addr:city" v="Kingston, Jamaica" /></node><node lat="17.9936676" lon="-76.7432758" t="enhancedOSM" version="1"><tag k="addr:housenumber" v="6" /><tag k="addr:street" v="Bailey Road" /></node><node lat="17.9928238" lon="-76.7442969" t="enhancedOSM" version="1"><tag k="addr:housenumber" v="67" /><tag k="addr:street" v="Beaumont Road" /></node><node lat="17.9896438" lon="-76.7359576" t="enhancedOSM" version="1"><tag k="addr:housenumber" v="7" /><tag k="addr:street" v="July Road" /><tag k="addr:city" v="Kingston, Jamaica" /></node><node lat="17.9935916" lon="-76.7433767" t="enhancedOSM" version="1"><tag k="addr:housenumber" v="8" /><tag k="addr:street" v="Bailey Road" /></node><node lat="17.9879828" lon="-76.7376738" t="enhancedOSM" version="1"><tag k="addr:housenumber" v="86" /><tag k="addr:street" v="August Town Road" /></node><node lat="17.9882349" lon="-76.7376459" t="enhancedOSM" version="1"><tag k="addr:housenumber" v="88" /><tag k="addr:street" v="August Town Road" /></node><node lat="17.9952375" lon="-76.7435092" t="enhancedOSM" version="1"><tag k="addr:housenumber" v="9" /><tag k="addr:street" v="Escarpment Road" /></node><node lat="17.9875545" lon="-76.7372543" t="enhancedOSM" version="1"><tag k="addr:housenumber" v="13" /><tag k="addr:street" v="August Town Road" /><tag k="addr:city" v="Kingston, Jamaica" /></node></root>